Company,Last Name,First Name,Title,Street,Street2,City,State,ZIP,Phone 1,Phone 2,Alt Contact,Alt Phone,Vendor Code,Vendor Account Number,Default Bill Due Days,Default Bill Discount Days,Default Bill Discount %,EMail,Website,Notes,Custom Field 1,Custom Field 2,Custom Field 3,Custom Field 4,Custom Field 5,Custom Field 6,Custom Field 7
System,,,,,,,,,,,,,SYS,,0,0,0,,,,,,,,,,
Stuff 4 u,,Adam,,,,,,,18007883348,,,,,,0,0,0,,,,,,,,,,
HBI,,Aaron,,,,,,,18004204372 EXT213,,,,,,0,0,0,,,,,,,,,,
Five Star Distributors,,Kevin,,704 Anclote Rd,,Tarpon Springs,Fl,34689,18663592869,,,,,,0,0,0,sales2vaporoutlet.com,,,,,,,,,
Innova,,,,,,,,,,,,,,,0,0,0,,,,,,,,,,
Sams,,,,,,,,,,,,,,,0,0,0,,,,,,,,,,
Dynamic Discs,,,,,,,,,,,,,,,0,0,0,,,,,,,,,,
Tobacco Outlet,,,,,,,,,,,,,,,0,0,0,,,,,,,,,,
Glow,,,,,,,,,,,,,,,0,0,0,,,,,,,,,,
Guardian,,,,,,,,,,,,,,,0,0,0,,,,,,,,,,
Vape USA,,,,,,,,,,,,,,,0,0,0,,,,,,,,,,
Colton Tant,,,,,,,,,,,,,,,0,0,0,,,,,,,,,,
Dr Pepper Snapple Group,,,,,,,,,,,,,,,0,0,0,,,,,,,,,,
Kroger,,,,,,,,,,,,,,,0,0,0,,,,,,,,,,
Marshall Hamden,,,,,,,,,,,,,,,0,0,0,,,,,,,,,,
Chad Bolin,,,,,,,,,,,,,,,0,0,0,,,,,,,,,,
James Toll,,,,,,,,,,,,,,,0,0,0,,,,,,,,,,
Lawanda Stonebrock,,,,,,,,,,,,,,,0,0,0,,,,,,,,,,
Scottie Edmonson,,,,,,,,,,,,,,,0,0,0,,,,,,,,,,
Joyce Penwell,,,,,,,,,,,,,,,0,0,0,,,,,,,,,,
Mike Werthaman,,,,,,,,,,,,,,,0,0,0,,,,,,,,,,
Tiffany Whitten,,,,,,,,,,,,,,,0,0,0,,,,,,,,,,
Kris Soward,,,,,,,,,,,,,,,0,0,0,,,,,,,,,,
Craig Burns,,,,,,,,,,,,,,,0,0,0,,,,,,,,,,
Noah Worthington,,,,,,,,,,,,,,,0,0,0,,,,,,,,,,
Brent Hudson,,,,,,,,,,,,,,,0,0,0,,,,,,,,,,
Georgia Stathopoulos,,,,,,,,,,,,,,,0,0,0,,,,,,,,,,
Sam Meyer,,,,,,,,,,,,,,,0,0,0,,,,,,,,,,
Kirk Jones,,,,,,,,,,,,,,,0,0,0,,,,,,,,,,
Leslie Pennucci,,,,,,,,,,,,,,,0,0,0,,,,,,,,,,
Janet Myers,,,,,,,,,,,,,,,0,0,0,,,,,,,,,,
Greg Wilder,,,,,,,,,,,,,,,0,0,0,,,,,,,,,,
Ami Boggess,,,,,,,,,,,,,,,0,0,0,,,,,,,,,,
Greg Hall,,,,,,,,,,,,,,,0,0,0,,,,,,,,,,
Alicia Gerhard,,,,,,,,,,,,,,,0,0,0,,,,,,,,,,
Derrick Buflod,,,,,,,,,,,,,,,0,0,0,,,,,,,,,,
Jennifer Bledsoe,,,,,,,,,,,,,,,0,0,0,,,,,,,,,,
Kelsey Carlson,,,,,,,,,,,,,,,0,0,0,,,,,,,,,,
Miah Hein,,,,,,,,,,,,,,,0,0,0,,,,,,,,,,
Scott Armstrong,,,,,,,,,,,,,,,0,0,0,,,,,,,,,,
Lisa Moon,,,,,,,,,,,,,,,0,0,0,,,,,,,,,,
Nathan Skinner,,,,,,,,,,,,,,,0,0,0,,,,,,,,,,
AFG,,,,,,,,,,,,,,,0,0,0,,,,,,,,,,
Tyler Carpenter,,,,,,,,,,,,,,,0,0,0,,,,,,,,,,
Steve Ratcliffe,,,,,,,,,,,,,,,0,0,0,,,,,,,,,,
Party Nuts,,,,,,,,,,,,,,,0,0,0,,,,,,,,,,
Volo,,,,,,,,,,,,,,,0,0,0,,,,,,,,,,
Vape world,,,,,,,,,,,,,,,0,0,0,,,,,,,,,,
James Cain,,,,,,,,,,,,,,,0,0,0,,,,,,,,,,
G3T,,,,,,,,,,,,,,,0,0,0,,,,,,,,,,
Vibram,,,,,,,,,,,,,,,0,0,0,,,,,,,,,,
DGA,,,,,,,,,,,,,,,0,0,0,,,,,,,,,,
Welgenix,,,,,,,,,,,,,,,0,0,0,,,,,,,,,,
Discraft,,,,,,,,,,,,,,,0,0,0,,,,,,,,,,
Studio B,,,,,,,,,,,,,,,0,0,0,,,,,,,,,,
Haz-E-Liquid,,,,,,,,,,,,,,,0,0,0,,,,,,,,,,
Trade in,,,,,,,,,,,,,,,0,0,0,,,,,,,,,,
Vapor Outlet,,,,,,,,,,,,,,,0,0,0,,,,,,,,,,
Vapor,,,,,,,,,,,,,,,0,0,0,,,,,,,,,,
Ancient Creations,,,,,,,,,,,,,,,0,0,0,,,,,,,,,,
Fade Gear,,,,,,,,,,,,,,,0,0,0,,,,,,,,,,
Ecosox,,,,,,,,,,,,,,,0,0,0,,,,,,,,,,
Flimsee,,,,,,,,,,,,,,,0,0,0,,,,,,,,,,
Legacy,,,,,,,,,,,,,,,0,0,0,,,,,,,,,,
Sean McKinney,,,,,,,,,,,,,,,0,0,0,,,,,,,,,,
Pets And People,,,,,,,,,,,,,,,0,0,0,,,,,,,,,,
ISI,,,,,,,,,,,,,,,0,0,0,,,,,,,,,,
D,,,,,,,,,,,,,,,0,0,0,,,,,,,,,,
Discmania,,,,,,,,,,,,,,,0,0,0,,,,,,,,,,
Front Case,,,,,,,,,,,,,,,0,0,0,,,,,,,,,,
Monster Steel,,,,,,,,,,,,,,,0,0,0,,,,,,,,,,
Prodigy,,,,507 Hickory Ridge Trail,Suite 150,Woodstock,GA,30188,7706930098,,,,,,0,0,0,,www.prodigydisc.com,,,,,,,,
Hilary Ault,,,,,,,,,,,,,,,0,0,0,,,,,,,,,,
Maxwell Myers,,,,,,,,,,,,,,,0,0,0,,,,,,,,,,
Scott Silvis,,,,,,,,,,,,,,,0,0,0,,,,,,,,,,
Everybody Jewelry,,,,,,,,,,,,,,,0,0,0,,,,,,,,,,
APM Jewelry,,,,,,,,,,,,,,,0,0,0,,,,,,,,,,
Kirk Benjamin,,,,,,,,,,,,,,,0,0,0,,,,,,,,,,
Cyndie Lyons,,,,,,,,,,,,,,,0,0,0,,,,,,,,,,
Grav Labs,,,,,,,,,,,,,,,0,0,0,,,,,,,,,,
Pocket Discs,,,,,,,,,,,,,,,0,0,0,,,,,,,,,,
Alley Cat,,,,,,,,,,,,,,,0,0,0,,,,,,,,,,
Maxpro,,,,,,,,,,,,,,,0,0,0,,,,,,,,,,
Josh Guild,,,,,,,,,,,,,,,0,0,0,,,,,,,,,,
Abandoned,,,,,,,,,,,,,,,0,0,0,,,,,,,,,,
Clearance,,,,,,,,,,,,,,,0,0,0,,,,,,,,,,
Glassex,,,,,,,,,,,,,,,0,0,0,,,,,,,,,,
Jamie Aubin,,,,,,,,,,,,,,,0,0,0,,,,,,,,,,
Mercedes Franklin,,,,,,,,,,,,,,,0,0,0,,,,,,,,,,
Source Vapes,,,,9030 W Sahara Ave,#642,Las Vegas,NV,89117,8558582737,,,,,,0,0,0,sales@sourcevapes.com,www.sourcevapes.com,,,,,,,,
Point of Sale LLC,,,,578 Washington Blvd #195,,Venice,Ca,90292,887-314-5338,,,,,,0,0,0,,,,,,,,,,
Millennium,,,,,,,,,,,,,,,0,0,0,,,,,,,,,,
Aerobie,,,,,,,,,,,,,,,0,0,0,,,,,,,,,,
Gateway,,,,,,,,,,,,,,,0,0,0,,,,,,,,,,
Gotta go Gotta Throw,,,,,,,,,,,,,,,0,0,0,,,,,,,,,,
Mvp,,,,,,,,,,,,,,,0,0,0,,,,,,,,,,
Hollywood,,,,,,,,,,,,,,,0,0,0,,,,,,,,,,
Dustin Shaneyfelt,,,,,,,,,,,,,,,0,0,0,,,,,,,,,,
Vatra,,,,,,,,,,,,,,,0,0,0,,,,,,,,,,
Dayton Design & Print,,,,,,,,,,,,,,,0,0,0,,,,,,,,,,
KD Distribution Inc.,,,,9367 Narnia Dr.,,Riverside,CA,92503,9516377070,,,,,,0,0,0,kdglassdistribution@gmail.com,,,,,,,,,
Kan Jam,,,,,,,,,,,,,,,0,0,0,,,,,,,,,,
Dark Star Glass,DeCarlo,Nick,Mr.,,,,,,,,,,,,0,0,0,,,,,,,,,,
Puk,,,,,,,,,,,,,,,0,0,0,,,,,,,,,,
Home Blown Glass,,,,,,,,,,,,,,,0,0,0,,,,,,,,,,
National Tobacco,Merz,Conni,,5201 Interchange Way,,Louisville,KY,40229,18003315962,,,,,,0,0,0,,,,,,,,,,
Danielle McCary,,,,,,,,,,,,,,,0,0,0,,,,,,,,,,
Lili Geiger,,,,,,,,,,,,,,,0,0,0,,,,,,,,,,
Halo,,,,,,,,,,,,,,,0,0,0,,,,,,,,,,
Natures Vida,Holes,Dave,,9180 S. Kyrene Rd,,Tempe,Az,85284,1-800-374-9242,,,,,,0,0,0,,,,,,,,,,
Burner Glassworks,,,,,,,,,,,,,,,0,0,0,,,,,,,,,,
Eagle Eye Products,,,,,,,,,,,,,,,0,0,0,,,,,,,,,,
Ching,,,,,,,,,,,,,,,0,0,0,,,,,,,,,,
Abc,,,,,,,,,,,,,,,0,0,0,,,,,,,,,,
Vapor Nation,,,,,,,,,,,,,,,0,0,0,,,,,,,,,,
Jim Lynch,,,,,,,,,,,,,,,0,0,0,,,,,,,,,,
old/unsure,,,,,,,,,,,,,,,0,0,0,,,,,,,,,,
Steve Sizelove,,,,,,,,,,,,,,,0,0,0,,,,,,,,,,
RX Glass,,,,,,,,,7075375473,,,,,,0,0,0,,,,,,,,,,
GlassLab303,,,,3770 Joliet St.,,Denver,CO,80239,,,,,,,0,0,0,,,,,,,,,,
Hazy Shade,,,,,,,,,,,,,,,0,0,0,,,,,,,,,,
LA Silver,,,,,,,,,,,,,,,0,0,0,,,,,,,,,,
"No Bad Ideas, Inc.",,,,,,,,,,,,,,,0,0,0,,,,,,,,,,
Mike Goodman,,,,,,,,,,,,,,,0,0,0,,,,,,,,,,
"Blake Caudill ""Crazy Glass""",,,,,,,,,,,,,,,0,0,0,,,,,,,,,,
Ohio Valley Glass,,,,,,,,,,,,,,,0,0,0,,,,,,,,,,
Brent Tattershall,,,,,,,,,,,,,,,0,0,0,,,,,,,,,,
Nate Tilford,,,,,,,,,,,,,,,0,0,0,,,,,,,,,,
Mark Tilford,,,,,,,,,,,,,,,0,0,0,,,,,,,,,,
Sara Jankowski,,,,,,,,,,,,,,,0,0,0,,,,,,,,,,
Josh Anderson,,,,,,,,,,,,,,,0,0,0,,,,,,,,,,
Little Flyer,,,,,,,,,,,,,,,0,0,0,,www.littleflyer.com,,,,,,,,
Tony Herdman,,,,,,,,,,,,,,,0,0,0,,,,,,,,,,
Slate Paul,,,,,,,,,,,,,,,0,0,0,,,,,,,,,,
Sunshine Joy,,,,,,,,,,,,,,,0,0,0,,,,,,,,,,
Gypsy rose,,,,,,,,,,,,,,,0,0,0,,,,,,,,,,
E-Bottles,,,,,,,,,,,,,,,0,0,0,,,,,,,,,,
Office Depot OfficeMax,,,,,,,,,,,,,,,0,0,0,,,,,,,,,,
Kanger Wholesale,,,,,,,,,,,,,,,0,0,0,,,,,,,,,,
Flavor Envy,,,,5005 Mercantile Lane,,Kissimmee,Fl,34758,4072888439,,,,,,0,0,0,,,,,,,,,,
Mt Baker Vapor,,,,3715 Irongate Rd.,,Bellingham,WA,45420,,,,,,,0,0,0,,,,,,,,,,
Grip,,,,,,,,,,,,,,,0,0,0,,,,,,,,,,
Dave Mann,,,,,,,,,,,,,,,0,0,0,,,,,,,,,,
Bret Viars,,,Owner,,,,,,,,,,,,0,0,0,,,Sea of Glass,,,,,,,
Fantasia,,,,,,,,,,,,,,,0,0,0,,,,,,,,,,
Travis Marshall,,,,,,,,,,,,,,,0,0,0,,,,,,,,,,
ErrlyBird,,,,PO Box 876,,Bloomington,Indiana,47402,,,,,,,0,0,0,,,,,,,,,,
Zach Wenclewicz,,,,,,,,,,,,,,,0,0,0,,,,,,,,,,
Jeff Bisel,,,,,,,,,,,,,,,0,0,0,,,,,,,,,,
Justin Johnson,,,,,,,,,,,,,,,0,0,0,,,,,,,,,,
Menzies Glass & Tool Design,,,,,,,,,,,,,,,0,0,0,,,,,,,,,,
ULINE,,,,,,,,,,,,,,,0,0,0,,,,,,,,,,
BOOM,,,,,,,,,,,,,,,0,0,0,,,,,,,,,,
Townsend Pricing,,,,,,,,,,,,,,,0,0,0,,,,,,,,,,
Headdy Glass,,,,,,,,,,,,,,,0,0,0,,,,,,,,,,
3rd Grain,,,,,,,,,,,,,,,0,0,0,,,,,,,,,,
Join Forces,,,,,,,,,,,,,,,0,0,0,,,,,,,,,,
Joint Forces,,,,,,,,,,,,,,,0,0,0,,,,,,,,,,
"Beads, Pendants and More Inc",,,,,,,,,1-415-902-4595,,,,,,0,0,0,Deborah@jellyfishglass.net,,,,,,,,,
13 Glass,,,,,,,,,,,,,,,0,0,0,,,,,,,,,,
Neil Messinger,,,,,,,,,,,,,,,0,0,0,,,,,,,,,,
Staples,,,,,,,,,,,,,,,0,0,0,,,,,,,,,,
Jay Tees,,,,,,,,,,,,,,,0,0,0,,,,,,,,,,
William P,,,,,,,,,,,,,,,0,0,0,,,,,,,,,,
Barnhill,,,,,,,,,,,,,,,0,0,0,,,,,,,,,,
Dayton Embroidery & Darts,,Lou,,2762 Wilmington Pike,,Kettering,Ohio,45419,937-294-2382,,,,,,0,0,0,,,,,,,,,,
Third Times a Charm,,,,,,,,,,,,,,,0,0,0,,,,,,,,,,
Shawn Brewer,,,,,,,,,,,,,,,0,0,0,,,,,,,,,,
Adam Jacobs,,,,,,,,,,,,,,,0,0,0,,,,,,,,,,
Frontier,,,,,,,,,,,,,,,0,0,0,,,,,,,,,,
Hookah Wholesalers,,,,,,,,,,,,,,,0,0,0,,,,,,,,,,
Envy,,,,,,,,,,,,,,,0,0,0,,,,,,,,,,
Wright glass,,,,,,,,,,,,,,,0,0,0,,,,,,,,,,
Jen glass,,,,,,,,,,,,,,,0,0,0,,,,,,,,,,
Medicali,,,,,,,,,,,,,,,0,0,0,,,,,,,,,,
Predator,,,,,,,,,,,,,,,0,0,0,,,,,,,,,,
Sea of Glass,,,,,,,,,,,,,,,0,0,0,,,,,,,,,,
St. Mary's DGC,Metz,Nate,,,,,,,,,,,,,0,0,0,,,,,,,,,,
Gibbie Glass Studios,,,,,,,,,,,,,,,0,0,0,,,,,,,,,,
Nate Marvel,,,,,,,,,,,,,,,0,0,0,,,,,,,,,,
Ridge Roler,,,,,,,,,,,,,,,0,0,0,,,,,,,,,,
Hannah Moser,,,,,,,,,,,,,,,0,0,0,,,,,,,,,,
Dan Sabato,,,,,,,,,,,,,,,0,0,0,,,,,,,,,,
Taylor Yarger,,,,,,,,,,,,,,,0,0,0,,,,,,,,,,
Dirty Mouthed Hippy,,,,,,,,,,,,,,,0,0,0,,,,,,,,,,
Amazon,,,,,,,,,,,,,,,0,0,0,,,,,,,,,,
Happy Glass,,,,,,,,,,,,,,,0,0,0,,,,,,,,,,
Pax Labs,,,,660 Alabama St.,,San Francisco,California,94110,844-334-4729,,,,,,0,0,0,,,,,,,,,,
Hang Low Beard Co.,,,,,,,,,,,,,,,0,0,0,,,,,,,,,,
Todd White,White,todd,Mr.,,,,,,,,,,,,0,0,0,D8nkid@gmail.com,,,,,,,,,
Jake Roy,,,,,,,,,,,,,,,0,0,0,,,,,,,,,,
1UpGlass,Stoddard,Michael,,,,,,,,,,,,,0,0,0,stodab8ker23@gmail.com,,,,,,,,,
Delta,,,,,,,,,,,,,,,0,0,0,,,,,,,,,,
Delta Liquids,,,,,,,,,,,,,,,0,0,0,,,,,,,,,,
Flavors United,,,,,,,,,,,,,,,0,0,0,,,,,,,,,,
1SourceProducts,,,,,,,,,,,,,,,0,0,0,,,,,,,,,,
Dhgate,,,,,,,,,,,,,,,0,0,0,,,,,,,,,,
New Era,,,,,,,,,,,,,,,0,0,0,,,,,,,,,,
Amanda Hamilton,,,,,,,,,,,,,,,0,0,0,,,,,,,,,,
Amand Hamilton,,,,,,,,,,,,,,,0,0,0,,,,,,,,,,
Zuca,,,,,,,,,,,,,,,0,0,0,,,,,,,,,,
Demogrid,,,,,,,,,,,,,,,0,0,0,,,,,,,,,,
DC8 Distribution,,,,,,,,,,,,,,,0,0,0,,,,,,,,,,
Aqua Falls,,,,,,,,,,,,,,,0,0,0,,,,,,,,,,
Secret Stashe,,,,,,,,,,,,,,,0,0,0,,,,,,,,,,
Kathryn Holland,,,,,,,,,,,,,,,0,0,0,,,,,,,,,,
Bryan Corwin Cincy Star Glassworks,,,,,,,,,,,,,,,0,0,0,,,,,,,,,,
Savage enterprises,,,,,,,,,,,,,,,0,0,0,,,,,,,,,,
Bad Ash,,,,,,,,,,,,,,,0,0,0,,,,,,,,,,
Halftone,,,,,,,,,,,,,,,0,0,0,,,,,,,,,,
True Wholesale,,,,,,,,,,,,,,,0,0,0,,,,,,,,,,
Christopher Klingensmith,,,,,,,,,,,,,,,0,0,0,,,,,,,,,,
Acha,,,,,,,,,,,,,,,0,0,0,,,,,,,,,,
I,,,,,,,,,,,,,,,0,0,0,,,,,,,,,,
Mastermind,,,,,,,,,,,,,,,0,0,0,,,,,,,,,,
Jeffrey Clouse,,,,,,,,,,,,,,,0,0,0,,,,,,,,,,
Jeff Mcdougal,,,,,,,,,,,,,,,0,0,0,,,,,,,,,,
Jeff,,,,,,,,,,,,,,,0,0,0,,,,,,,,,,
Whale Sacs,Stanaitis,Tina,,,,,,,,,,,,,0,0,0,,,,,,,,,,
Ziggy Stardust,,,,,,,,,,,,,,,0,0,0,,,,,,,,,,
Matt Simpson,,,,,,,,,,,,,,,0,0,0,,,,,,,,,,
GSM,,,,,,,,,,,,,,,0,0,0,,,,,,,,,,
Disc Golf United,,,,,,,,,,,,,,,0,0,0,,,,,,,,,,
High Five,,,,,,,,,,,,,,,0,0,0,,,,,,,,,,
Mike Barnes,,,,,,,,,,,,,,,0,0,0,,,,,,,,,,
Jason Royston,,,,,,,,,,,,,,,0,0,0,,,,,,,,,,
Disc Gator,,,,,,,,,,,,,,,0,0,0,,,,,,,,,,
Peace by Piece,,,,,,,,,,,,,,,0,0,0,,,,,,,,,,